CCSDS_OEM_VERS = 1.0
CREATION_DATE  = 2017-05-11T11:17:19
ORIGINATOR     = GMAT USER

META_START
OBJECT_NAME          = MOPSSat_alt_35785_km_RAAN_90_093
OBJECT_ID            = SatId
CENTER_NAME          = Earth
REF_FRAME            = EME2000
TIME_SYSTEM          = UTC
START_TIME           = 2017-01-01T00:00:00.000
USEABLE_START_TIME   = 2017-01-01T00:00:00.000
USEABLE_STOP_TIME    = 2017-01-02T00:00:00.000
STOP_TIME            = 2017-01-02T00:00:00.000
INTERPOLATION        = Lagrange
INTERPOLATION_DEGREE = 7 
META_STOP


                                                                                   

2017-01-01T11:09:10.000  -8.100015707178934e+03  -4.558220374137292e+04   6.762396729783081e-01   2.733776396217894e+00  -5.405088870723312e-01  -4.333861746475573e-05
2017-01-01T11:09:20.000  -8.072676317350907e+03  -4.558759967475390e+04   6.758059871456031e-01   2.734101289369754e+00  -5.386777448695018e-01  -4.339854828907024e-05
2017-01-01T11:09:30.000  -8.045333684200412e+03  -4.559297729593697e+04   6.753717019840313e-01   2.734425072983985e+00  -5.368464500335496e-01  -4.345848342714338e-05
2017-01-01T11:09:40.000  -8.017987818929303e+03  -4.559833660337729e+04   6.749368174522830e-01   2.734747747044443e+00  -5.350150031020803e-01  -4.351842284996776e-05
2017-01-01T11:09:50.000  -7.990638732708116e+03  -4.560367759554269e+04   6.745013335088672e-01   2.735069311535481e+00  -5.331834046105055e-01  -4.357836652858021e-05
2017-01-01T11:10:00.000  -7.963286436643602e+03  -4.560900027091831e+04   6.740652501115552e-01   2.735389766442245e+00  -5.313516550898774e-01  -4.363831443414191e-05
2017-01-01T11:10:10.000  -7.935930941861947e+03  -4.561430462799135e+04   6.736285672187231e-01   2.735709111749739e+00  -5.295197550724563e-01  -4.369826653775237e-05
2017-01-01T11:10:20.000  -7.908572259147983e+03  -4.561959066531892e+04   6.731912847835396e-01   2.736027347446917e+00  -5.276877050675614e-01  -4.375822281125306e-05
2017-01-01T11:10:30.000  -7.881210399382303e+03  -4.562485838144517e+04   6.727534027609970e-01   2.736344473521701e+00  -5.258555055908328e-01  -4.381818322625613e-05
2017-01-01T11:10:40.000  -7.853845373376099e+03  -4.563010777493287e+04   6.723149211052600e-01   2.736660489962867e+00  -5.240231571531747e-01  -4.387814775451141e-05
2017-01-01T11:10:50.000  -7.826477192510926e+03  -4.563533884424048e+04   6.718758397799136e-01   2.736975396752658e+00  -5.221906603035953e-01  -4.393811636648943e-05
2017-01-01T11:11:00.000  -7.799105868098967e+03  -4.564055158784521e+04   6.714361587477204e-01   2.737289193874183e+00  -5.203580155863677e-01  -4.399808903279829e-05
2017-01-01T11:11:10.000  -7.771731411548117e+03  -4.564574600421105e+04   6.709958779732604e-01   2.737601881309500e+00  -5.185252235520875e-01  -4.405806572381651e-05
2017-01-01T11:11:20.000  -7.744353833925245e+03  -4.565092209187392e+04   6.705549974159648e-01   2.737913459044732e+00  -5.166922847284229e-01  -4.411804641066496e-05
2017-01-01T11:11:30.000  -7.716973146316521e+03  -4.565607984937086e+04   6.701135170358558e-01   2.738223927065821e+00  -5.148591996442490e-01  -4.417803106440231e-05
2017-01-01T11:11:40.000  -7.689589359744392e+03  -4.566121927525671e+04   6.696714367922219e-01   2.738533285359515e+00  -5.130259688240859e-01  -4.423801965621240e-05
2017-01-01T11:11:50.000  -7.662202485199547e+03  -4.566634036809650e+04   6.692287566440993e-01   2.738841533912912e+00  -5.111925927902443e-01  -4.429801215731923e-05
2017-01-01T11:12:00.000  -7.634812533656441e+03  -4.567144312646373e+04   6.687854765505495e-01   2.739148672713366e+00  -5.093590720638614e-01  -4.435800853896795e-05
2017-01-01T11:12:10.000  -7.607419516106081e+03  -4.567652754893411e+04   6.683415964711931e-01   2.739454701748107e+00  -5.075254071670959e-01  -4.441800877234739e-05
2017-01-01T11:12:20.000  -7.580023443571142e+03  -4.568159363408189e+04   6.678971163664209e-01   2.739759621004007e+00  -5.056915986241449e-01  -4.447801282857154e-05
2017-01-01T11:12:30.000  -7.552624327138492e+03  -4.568664138047486e+04   6.674520361979613e-01   2.740063430467304e+00  -5.038576469634140e-01  -4.453802067859389e-05
2017-01-01T11:12:40.000  -7.525222177875808e+03  -4.569167078668944e+04   6.670063559275101e-01   2.740366130124485e+00  -5.020235527119413e-01  -4.459803229339526e-05
2017-01-01T11:12:50.000  -7.497817007192973e+03  -4.569668185124604e+04   6.665600755226625e-01   2.740667719958414e+00  -5.001893164195793e-01  -4.465804764317802e-05
2017-01-01T11:13:00.000  -7.470408826404237e+03  -4.570167457268771e+04   6.661131949497382e-01   2.740968199953051e+00  -4.983549386296963e-01  -4.471806669833934e-05
2017-01-01T11:13:10.000  -7.442997646890992e+03  -4.570664894955060e+04   6.656657141764432e-01   2.741267570091687e+00  -4.965204198900695e-01  -4.477808942910943e-05
2017-01-01T11:13:20.000  -7.415583479471284e+03  -4.571160498047872e+04   6.652176331615847e-01   2.741565830363839e+00  -4.946857607106886e-01  -4.483811580694681e-05
2017-01-01T11:13:30.000  -7.388166335028687e+03  -4.571654266410926e+04   6.647689518653245e-01   2.741862980758364e+00  -4.928509616058454e-01  -4.489814580314659e-05
2017-01-01T11:13:40.000  -7.360746224369861e+03  -4.572146199909909e+04   6.643196702468676e-01   2.742159021265034e+00  -4.910160230846007e-01  -4.495817938915765e-05
2017-01-01T11:13:50.000  -7.333323158579256e+03  -4.572636298405839e+04   6.638697882701975e-01   2.742453951870554e+00  -4.891809456745274e-01  -4.501821653579112e-05
2017-01-01T11:14:00.000  -7.305897148755895e+03  -4.573124561760053e+04   6.634193058998418e-01   2.742747772561559e+00  -4.873457299040898e-01  -4.507825721381150e-05
2017-01-01T11:14:10.000  -7.278468206013197e+03  -4.573610989834112e+04   6.629682231008400e-01   2.743040483324562e+00  -4.855103763026349e-01  -4.513830139393189e-05
2017-01-01T11:14:20.000  -7.251036341743109e+03  -4.574095582485359e+04   6.625165398431594e-01   2.743332084143281e+00  -4.836748854180585e-01  -4.519834904624987e-05
2017-01-01T11:14:30.000  -7.223601567260497e+03  -4.574578339573002e+04   6.620642560957780e-01   2.743622575002288e+00  -4.818392577930175e-01  -4.525840014101197e-05
2017-01-01T11:14:40.000  -7.196163893943186e+03  -4.575059260955677e+04   6.616113718290063e-01   2.743911955885557e+00  -4.800034939743008e-01  -4.531845464831162e-05
2017-01-01T11:14:50.000  -7.168723332612802e+03  -4.575538346502318e+04   6.611578870042700e-01   2.744200226782996e+00  -4.781675944714007e-01  -4.537851253943248e-05
2017-01-01T11:15:00.000  -7.141279894153904e+03  -4.576015596081278e+04   6.607038015843223e-01   2.744487387683904e+00  -4.763315597979406e-01  -4.543857378550484e-05
2017-01-01T11:15:10.000  -7.113833589374050e+03  -4.576491009562816e+04   6.602491155309452e-01   2.744773438578469e+00  -4.744953904623100e-01  -4.549863835780867e-05
2017-01-01T11:15:20.000  -7.086384429358864e+03  -4.576964586812700e+04   6.597938288107555e-01   2.745058379453909e+00  -4.726590869914282e-01  -4.555870622700339e-05
2017-01-01T11:15:30.000  -7.058932425208545e+03  -4.577436327697014e+04   6.593379413909202e-01   2.745342210297381e+00  -4.708226499131071e-01  -4.561877736369869e-05
2017-01-01T11:15:40.000  -7.031477588037708e+03  -4.577906232082083e+04   6.588814532391202e-01   2.745624931095922e+00  -4.689860797560452e-01  -4.567885173845553e-05
2017-01-01T11:15:50.000  -7.004019929239736e+03  -4.578374299830181e+04   6.584243643280219e-01   2.745906541833868e+00  -4.671493770675040e-01  -4.573892932120862e-05
2017-01-01T11:16:00.000  -6.976559460130858e+03  -4.578840530805394e+04   6.579666746292882e-01   2.746187042496390e+00  -4.653125423895061e-01  -4.579901008204310e-05
2017-01-01T11:16:10.000  -6.949096192092973e+03  -4.579304924871231e+04   6.575083841159750e-01   2.746466433068054e+00  -4.634755762683881e-01  -4.585909399088384e-05
2017-01-01T11:16:20.000  -6.921630135943541e+03  -4.579767481901295e+04   6.570494927520124e-01   2.746744713539229e+00  -4.616384792126525e-01  -4.591918101886558e-05
2017-01-01T11:16:30.000  -6.894161302567255e+03  -4.580228201768570e+04   6.565900005027460e-01   2.747021883899658e+00  -4.598012517352223e-01  -4.597927113696018e-05
2017-01-01T11:16:40.000  -6.866689702753028e+03  -4.580687084348203e+04   6.561299073322188e-01   2.747297944140123e+00  -4.579638943425353e-01  -4.603936431632948e-05
2017-01-01T11:16:50.000  -6.839215347632309e+03  -4.581144129509976e+04   6.556692132104525e-01   2.747572894247916e+00  -4.561264075638661e-01  -4.609946052737942e-05
2017-01-01T11:17:00.000  -6.811738248317419e+03  -4.581599337124550e+04   6.552079181074515e-01   2.747846734210599e+00  -4.542887919271328e-01  -4.615955974053794e-05
2017-01-01T11:17:10.000  -6.784258415982259e+03  -4.582052707062064e+04   6.547460219945375e-01   2.748119464015158e+00  -4.524510479642957e-01  -4.621966192608333e-05
2017-01-01T11:17:20.000  -6.756775861840559e+03  -4.582504239192634e+04   6.542835248440277e-01   2.748391083648307e+00  -4.506131762098987e-01  -4.627976705417721e-05
2017-01-01T11:17:30.000  -6.729290597118332e+03  -4.582953933386699e+04   6.538204266287371e-01   2.748661593096688e+00  -4.487751771992319e-01  -4.633987509493943e-05
2017-01-01T11:17:40.000  -6.701802633043996e+03  -4.583401789515188e+04   6.533567273218163e-01   2.748930992346979e+00  -4.469370514676695e-01  -4.639998601846427e-05
2017-01-01T11:17:50.000  -6.674311980750146e+03  -4.583847807451190e+04   6.528924268951142e-01   2.749199281386903e+00  -4.450987995441016e-01  -4.646009979505029e-05
2017-01-01T11:18:00.000  -6.646818651338996e+03  -4.584291987068806e+04   6.524275253202583e-01   2.749466460204519e+00  -4.432604219553105e-01  -4.652021639504210e-05
2017-01-01T11:18:10.000  -6.619322655882375e+03  -4.584734328243165e+04   6.519620225686604e-01   2.749732528788255e+00  -4.414219192259731e-01  -4.658033578883585e-05
